DMSP 5D-3 F16 (USA 172) 
1 28054U 03048A   26015.88026914  .00000075  00000+0  63078-4 0  9995
2 28054  99.0026  38.6028 0006742 211.7011 276.1082 14.14438047147954
METEOSAT-9 (MSG-2)      
1 28912U 05049B   26015.16796375  .00000134  00000+0  00000+0 0  9994
2 28912   9.0141  55.6597 0002453 189.6213 335.5935  1.00279288  5465
DMSP 5D-3 F17 (USA 191) 
1 29522U 06050A   26015.85508999  .00000107  00000+0  77678-4 0  9994
2 29522  98.7395  25.5346 0010904 128.0716 232.1443 14.14936167990871
FENGYUN 3A              
1 32958U 08026A   26015.80080111  .00000042  00000+0  40566-4 0  9996
2 32958  98.6735 319.6176 0008184 200.6999 159.3847 14.19526710913787
GOES 14                 
1 35491U 09033A   26015.63226596  .00000103  00000+0  00000+0 0  9992
2 35491   1.2911  85.0239 0000954 255.6314 231.1436  1.00102919  5063
DMSP 5D-3 F18 (USA 210) 
1 35951U 09057A   26015.81382109  .00000227  00000+0  14089-3 0  9995
2 35951  98.8874 357.0519 0010631 329.2160  30.8388 14.14794889838041
EWS-G2 (GOES 15)        
1 36411U 10008A   26015.80719538  .00000055  00000+0  00000+0 0  9997
2 36411   0.8957  85.9482 0005104 190.1762 191.0984  1.00273836 58115
COMS 1                  
1 36744U 10032A   26015.70900322 -.00000330  00000+0  00000+0 0  9992
2 36744   4.4202  77.5814 0000850 242.1120 178.8701  1.00270854 49568
FENGYUN 3B              
1 37214U 10059A   26015.84339525  .00000173  00000+0  11311-3 0  9995
2 37214  98.9870  61.0524 0021143 258.0113 219.0609 14.14800588785881
SUOMI NPP               
1 37849U 11061A   26015.80885352  .00000048  00000+0  43522-4 0  9994
2 37849  98.7811 317.8505 0002440  62.2408 297.9015 14.19525392736828
METEOSAT-10 (MSG-3)     
1 38552U 12035B   26015.80086593  .00000007  00000+0  00000+0 0  9992
2 38552   4.3079  61.6305 0001856 284.0264  57.9393  1.00271118 49320
METOP-B                 
1 38771U 12049A   26015.79240311  .00000078  00000+0  55468-4 0  9999
2 38771  98.6749  70.1659 0003262  75.2675 284.8864 14.21422537691618
INSAT-3D                
1 39216U 13038B   26015.82651943 -.00000323  00000+0  00000+0 0  9995
2 39216   1.5323  84.5920 0001688 166.6617 291.0689  1.00269540 45552
FENGYUN 3C              
1 39260U 13052A   26015.88137126  .00000059  00000+0  51126-4 0  9993
2 39260  98.4803 356.9007 0015802 100.8978 259.3976 14.15708188637014
METEOR-M 2              
1 40069U 14037A   26015.88915735 -.00000291  00000+0 -11403-3 0  9999
2 40069  98.4937 357.1716 0006745 113.5771 246.6116 14.21401101597684
HIMAWARI-8              
1 40267U 14060A   26015.82868612 -.00000258  00000+0  00000+0 0  9999
2 40267   0.0079 127.9793 0000891 181.0404 245.2144  1.00271218 41235
FENGYUN 2G              
1 40367U 14090A   26015.74396013 -.00000289  00000+0  00000+0 0  9999
2 40367   5.2529  74.6866 0001477 186.1499 221.8456  1.00273261 40474
METEOSAT-11 (MSG-4)     
1 40732U 15034A   26015.80268594  .00000079  00000+0  00000+0 0  9999
2 40732   2.8213  71.8920 0000408 158.5196 183.2330  1.00278157  5688
ELEKTRO-L 2             
1 41105U 15074A   26015.86933304 -.00000105  00000+0  00000+0 0  9993
2 41105   6.3109  72.4171 0003611 219.8870 121.4527  1.00271333 36977
INSAT-3DR               
1 41752U 16054A   26015.79147772 -.00000059  00000+0  00000+0 0  9996
2 41752   0.0921  87.8174 0013915 187.2551 199.0952  1.00271873 34298
HIMAWARI-9              
1 41836U 16064A   26015.47207889 -.00000257  00000+0  00000+0 0  9991
2 41836   0.0486 234.3462 0000731 111.5034  79.7484  1.00267609 33671
GOES 16                 
1 41866U 16071A   26015.85307593 -.00000073  00000+0  00000+0 0  9993
2 41866   0.1069  97.3502 0002845 184.1371  36.2116  1.00271865 33570
FENGYUN 4A              
1 41882U 16077A   26015.89905884 -.00000341  00000+0  00000+0 0  9996
2 41882   1.9354  82.0531 0005042 133.2573 347.4912  1.00269873 33407
CYGFM05                 
1 41884U 16078A   26015.84669560  .00013793  00000+0  24631-3 0  9996
2 41884  34.9567 184.0864 0007785 139.7485 220.3814 15.49118155505051
CYGFM04                 
1 41885U 16078B   26015.74162712  .00016140  00000+0  25943-3 0  9999
2 41885  34.9326 158.5318 0006935 168.8306 191.2572 15.52052875505222
CYGFM02                 
1 41886U 16078C   26015.77198122  .00017874  00000+0  27175-3 0  9991
2 41886  34.9413 156.1970 0008481 169.5829 190.5071 15.53561134505369
CYGFM01                 
1 41887U 16078D   26015.50339364  .00014505  00000+0  25339-3 0  9996
2 41887  34.9396 188.4374 0007407 126.2177 233.9231 15.49735381504944
CYGFM08                 
1 41888U 16078E   26015.78918356  .00015401  00000+0  25652-3 0  9995
2 41888  34.9433 169.1408 0008990 157.4439 202.6680 15.51049923505222
CYGFM07                 
1 41890U 16078G   26015.71381870  .00015781  00000+0  25719-3 0  9991
2 41890  34.9453 158.4188 0007376 175.5442 184.5347 15.51669450505237
CYGFM03                 
1 41891U 16078H   26015.74570790  .00015580  00000+0  25499-3 0  9998
2 41891  34.9407 160.1515 0006800 159.7666 200.3326 15.51556861505217
FENGYUN 3D              
1 43010U 17072A   26015.91976402 -.00000308  00000+0 -12399-3 0  9996
2 43010  98.9933 347.7498 0002366 106.9607 253.1828 14.19694370423382
NOAA 20 (JPSS-1)        
1 43013U 17073A   26015.82340671  .00000021  00000+0  30885-4 0  9994
2 43013  98.7636 316.7541 0001464  38.0149 322.1130 14.19536087422856
GOES 17                 
1 43226U 18022A   26015.64041267 -.00000165  00000+0  00000+0 0  9995
2 43226   0.5445  88.5884 0002843 203.6787 323.8596  1.00271347 28896
FENGYUN 2H              
1 43491U 18050A   26015.81646603 -.00000112  00000+0  00000+0 0  9996
2 43491   2.6382  80.9560 0002211 176.2417 231.1317  1.00268921 27912
METOP-C                 
1 43689U 18087A   26015.74889857  .00000072  00000+0  52926-4 0  9990
2 43689  98.6878  77.9886 0000580 182.3834 177.7341 14.21498496373174
GEO-KOMPSAT-2A          
1 43823U 18100A   26014.97037094 -.00000325  00000+0  00000+0 0  9991
2 43823   0.0296 156.7004 0000742 255.8217 179.4906  1.00271806 26093
METEOR-M2 2             
1 44387U 19038A   26015.87807030 -.00000099  00000+0 -23115-4 0  9999
2 44387  98.9005   1.0314 0002311  90.4027 269.7416 14.24307344339616
ARKTIKA-M 1             
1 47719U 21016A   26012.97641839 -.00000177  00000+0  00000+0 0  9990
2 47719  63.1848  79.6974 7219918 269.2481  15.4078  2.00632572 35674
FENGYUN 3E              
1 49008U 21062A   26015.85131753  .00000000  00000+0  20790-4 0  9990
2 49008  98.7486  20.9699 0002094 135.9655 224.1688 14.19884862234965
GOES 18                 
1 51850U 22021A   26015.77365243  .00000115  00000+0  00000+0 0  9992
2 51850   0.0028  95.8331 0000843 268.9256 251.9579  1.00272294  5069
NOAA 21 (JPSS-2)        
1 54234U 22150A   26015.78804884  .00000014  00000+0  27609-4 0  9991
2 54234  98.7499 316.6782 0000638 285.8521  74.2585 14.19534777164928
METEOSAT-12 (MTG-I1)    
1 54743U 22170C   26015.80077927  .00000012  00000+0  00000+0 0  9990
2 54743   0.7277  29.3476 0001452 260.9510 112.9909  1.00275222 11457
TIANMU-1 03             
1 55973U 23039A   26015.83657380  .00009678  00000+0  22854-3 0  9993
2 55973  97.5114 184.4719 0002556 300.3341  59.7652 15.42074624157310
TIANMU-1 04             
1 55974U 23039B   26015.80836238  .00010001  00000+0  23327-3 0  9990
2 55974  97.5045 183.6204 0003206 292.3524  67.7383 15.42433369157315
TIANMU-1 05             
1 55975U 23039C   26015.81126760  .00009716  00000+0  22979-3 0  9997
2 55975  97.5093 184.1167 0002644 328.7311  31.3779 15.42027019157290
TIANMU-1 06             
1 55976U 23039D   26015.80943346  .00010019  00000+0  23335-3 0  9999
2 55976  97.5102 184.6084 0002887 319.6979  40.4053 15.42480017157313
FENGYUN 3G              
1 56232U 23055A   26015.62797369  .00019986  00000+0  31459-3 0  9993
2 56232  49.9941  52.6926 0004195  30.0262 330.0946 15.53524145156291
METEOR-M2 3             
1 57166U 23091A   26015.83938550 -.00000023  00000+0  89481-5 0  9995
2 57166  98.6331  73.7749 0002966 246.2009 113.8859 14.24030513132835
TIANMU-1 07             
1 57399U 23101A   26015.83731917  .00004088  00000+0  14949-3 0  9992
2 57399  97.2834  69.9391 0002968 338.6461  21.4654 15.28625603138362
TIANMU-1 08             
1 57400U 23101B   26015.87080953  .00003768  00000+0  13841-3 0  9990
2 57400  97.2822  69.7622 0004714 331.1589  28.9390 15.28521228138364
TIANMU-1 09             
1 57401U 23101C   26015.85608280  .00004144  00000+0  15136-3 0  9996
2 57401  97.2779  69.2451 0004167 336.7578  23.3473 15.28652402138362
TIANMU-1 10             
1 57402U 23101D   26015.89045339  .00004282  00000+0  15632-3 0  9995
2 57402  97.2860  70.1647 0005846 332.0430  28.0495 15.28645242138363
FENGYUN 3F              
1 57490U 23111A   26015.83803984  .00000019  00000+0  29511-4 0  9991
2 57490  98.7032  88.5735 0001258 114.8988 245.2319 14.19903512127244
ARKTIKA-M 2             
1 58584U 23198A   26012.73459105  .00000183  00000+0  00000+0 0  9998
2 58584  63.2247 171.5166 6868296 267.9781  18.8360  2.00601360 15200
TIANMU-1 11             
1 58645U 23205A   26015.87106274  .00003601  00000+0  14674-3 0  9993
2 58645  97.3585  39.9011 0009324 171.5971 188.5425 15.25069064114297
TIANMU-1 12             
1 58646U 23205B   26015.83485692  .00003502  00000+0  14327-3 0  9999
2 58646  97.3573  39.6598 0008113 153.4983 206.6671 15.24965596114276
TIANMU-1 13             
1 58647U 23205C   26015.86742465  .00003678  00000+0  15007-3 0  9997
2 58647  97.3601  39.9075 0008866 137.4308 222.7619 15.25010431114271
TIANMU-1 14             
1 58648U 23205D   26015.85122964  .00003494  00000+0  14279-3 0  9999
2 58648  97.3533  39.2088 0009555 142.1281 218.0631 15.24990856114271
TIANMU-1 19             
1 58660U 23208A   26015.85864341  .00005555  00000+0  20251-3 0  9995
2 58660  97.4381 131.8453 0006167 129.3273 230.8514 15.28568413114036
TIANMU-1 20             
1 58661U 23208B   26015.81862921  .00005470  00000+0  19227-3 0  9991
2 58661  97.4320 132.2865 0008258 139.5286 220.6570 15.29759578114104
TIANMU-1 21             
1 58662U 23208C   26015.82587808  .00006481  00000+0  20956-3 0  9995
2 58662  97.4369 134.3583 0007766 134.7403 225.4472 15.32398087114213
TIANMU-1 22             
1 58663U 23208D   26015.86447870  .00005045  00000+0  18589-3 0  9998
2 58663  97.4376 131.8935 0004521 146.8101 213.3423 15.28271018114042
TIANMU-1 15             
1 58700U 24004A   26015.84825698  .00004087  00000+0  16695-3 0  9992
2 58700  97.4630 202.1993 0007548 156.2175 203.9413 15.24933706112543
TIANMU-1 16             
1 58701U 24004B   26015.83278491  .00003894  00000+0  15913-3 0  9992
2 58701  97.4572 201.5462 0005901 156.4877 203.6632 15.24961485112540
TIANMU-1 17             
1 58702U 24004C   26015.88204762  .00003920  00000+0  15996-3 0  9999
2 58702  97.4605 202.0228 0005078 155.6178 204.5300 15.25002813112548
TIANMU-1 18             
1 58703U 24004D   26015.86581291  .00003913  00000+0  15985-3 0  9993
2 58703  97.4621 202.2090 0004523 152.2285 207.9195 15.24975249112542
INSAT-3DS               
1 58990U 24033A   26015.77781631 -.00000138  00000+0  00000+0 0  9998
2 58990   0.0812 264.1216 0001584  66.7272 146.4722  1.00272085 45543
METEOR-M2 4             
1 59051U 24039A   26015.89197228  .00000001  00000+0  20147-4 0  9996
2 59051  98.6814 337.2738 0006015 248.1500 111.9039 14.22407337 97613
GOES 19                 
1 60133U 24119A   26015.78595917 -.00000230  00000+0  00000+0 0  9999
2 60133   0.0054 126.7566 0001122 223.7671 332.4542  1.00271228  5439
FENGYUN 3H              
1 65815U 25219A   26015.83471600  .00000016  00000+0  27776-4 0  9996
2 65815  98.6623 319.6919 0001336 104.4391 255.6934 14.19915258 15762
